IRIDIUM 171             
1 43929U 19002H   25232.94739618  .00000019  00000+0 -38738-6 0  9995
2 43929  86.3979 119.3886 0002414  88.9754 271.1718 14.34217442345921
IRIDIUM 170             
1 43930U 19002J   25235.19474636  .00000677  00000+0  10351-3 0  9990
2 43930  86.6091 118.1901 0002301  88.9786 271.1695 14.72247728355417
IRIDIUM 167             
1 43931U 19002K   25235.17364571  .00000055  00000+0  12738-4 0  9997
2 43931  86.3967 118.2051 0002398  95.6741 264.4729 14.34217829346247
IRIDIUM 181             
1 56726U 23068S   25235.26739466  .00000274  00000+0  75395-4 0  9990
2 56726  86.4569 181.2385 0002956  82.9212 277.2325 14.43307563119465
IRIDIUM 177             
1 56727U 23068T   25234.38827553  .00000968  00000+0  12384-3 0  9996
2 56727  86.1954 110.7134 0002504  90.9326 269.2182 14.80232253122161
IRIDIUM 174             
1 56728U 23068U   25235.18237678  .00000627  00000+0  95527-4 0  9992
2 56728  86.6098 118.3124 0001862  86.1644 273.9786 14.72260018122179
IRIDIUM 178             
1 56729U 23068V   25235.25619487  .00001107  00000+0  14227-3 0  9994
2 56729  86.6601 149.8628 0002348  86.7181 273.4310 14.80235133122290
IRIDIUM 179             
1 56730U 23068W   25235.25082684  .00000562  00000+0  70520-4 0  9992
2 56730  86.6851 157.9366 0002453  92.0249 268.1254 14.80229044122292
